NORAD_CAT_ID,OBJECT_NAME,OBJECT_TYPE,EPOCH,MEAN_MOTION,ECCENTRICITY,INCLINATION,RA_OF_ASC_NODE,ARG_OF_PERICENTER,MEAN_ANOMALY,BSTAR,MEAN_MOTION_DOT,MEAN_MOTION_DDOT,TLE_LINE0,TLE_LINE1,TLE_LINE2,SEMIMAJOR_AXIS,PERIOD,APOGEE,PERIGEE,DECAYED
54007.0,STARLINK-5132,PAYLOAD,2022-12-02 20:00:01,15.27935856,0.0001492,53.2173,169.2164,80.866,126.7949,-0.050227,-0.01270483,0.0,0 STARLINK-5132,1 54007U 22125AV  22336.83334491 -.01270483  00000-0 -50227-1 0  9993,2 54007  53.2173 169.2164 0001492  80.8660 126.7949 15.27935856  1305,6860.121,94.245,483.009,480.962,0.0
54007.0,STARLINK-5132,PAYLOAD,2022-12-03 06:00:00,15.26829755,0.0001259,53.2172,167.2908,69.2569,270.7139,-0.04726,-0.0116432,0.0,0 STARLINK-5132,1 54007U 22125AV  22337.25001157 -.01164320  00000-0 -47260-1 0  9995,2 54007  53.2172 167.2908 0001259  69.2569 270.7139 15.26829755  9496,6863.434,94.313,486.163,484.434,0.0
54007.0,STARLINK-5132,PAYLOAD,2022-12-03 14:00:01,15.26033482,0.0001247,53.2171,165.7529,69.30199999999999,303.3632,-0.049388,-0.01185801,0.0,0 STARLINK-5132,1 54007U 22125AV  22337.58334491 -.01185801  00000-0 -49388-1 0  9991,2 54007  53.2171 165.7529 0001247  69.3020 303.3632 15.26033482  1304,6865.821,94.362,488.542,486.83,0.0
54007.0,STARLINK-5132,PAYLOAD,2022-12-03 22:00:00,15.25211261,0.0001346,53.2174,164.2196,66.3823,338.0122,-0.050139,-0.01175137,0.0,0 STARLINK-5132,1 54007U 22125AV  22337.91667824 -.01175137  00000-0 -50139-1 0  9994,2 54007  53.2174 164.2196 0001346  66.3823 338.0122 15.25211261  1300,6868.288000000001,94.413,491.078,489.229,0.0
54007.0,STARLINK-5132,PAYLOAD,2022-12-04 06:00:00,15.24408958,0.0001361999999999,53.2173,162.6843,63.3368,11.8022,-0.0521809999999999,-0.01192318,0.0,0 STARLINK-5132,1 54007U 22125AV  22338.25001157 -.01192318  00000-0 -52181-1 0  9992,2 54007  53.2173 162.6843 0001362  63.3368  11.8022 15.24408958  9649,6870.698,94.463,493.499,491.627,0.0
54007.0,STARLINK-5132,PAYLOAD,2022-12-04 14:00:01,15.23572128,0.0001445,53.2169,161.1523,65.6693,39.2505,-0.051868,-0.01158596,0.0,0 STARLINK-5132,1 54007U 22125AV  22338.58334491 -.01158596  00000-0 -51868-1 0  9999,2 54007  53.2169 161.1523 0001445  65.6693  39.2505 15.23572128  1306,6873.2130000000025,94.515,496.072,494.085,0.0
54007.0,STARLINK-5132,PAYLOAD,2022-12-04 22:00:00,15.2276281,0.0001413,53.2172,159.6246,70.8458,62.863,-0.053429,-0.01164484,0.0,0 STARLINK-5132,1 54007U 22125AV  22338.91667824 -.01164484  00000-0 -53429-1 0  9993,2 54007  53.2172 159.6246 0001413  70.8458  62.8630 15.22762810  9752,6875.649,94.565,498.485,496.542,0.0
54007.0,STARLINK-5132,PAYLOAD,2022-12-05 14:00:01,15.21145771,0.000154,53.2169,156.5689,72.1225,116.2966,-0.056765,-0.01178172,0.0,0 STARLINK-5132,1 54007U 22125AV  22339.58335648 -.01178172  00000-0 -56765-1 0  9998,2 54007  53.2169 156.5689 0001540  72.1225 116.2966 15.21145771  1302,6880.52,94.665,503.445,501.326,0.0
54007.0,STARLINK-5132,PAYLOAD,2022-12-05 22:00:01,15.20307084,0.0001486999999999,53.2176,155.0457,65.9637,148.3261,-0.056333,-0.01143538,0.0,0 STARLINK-5132,1 54007U 22125AV  22339.91668981 -.01143538  00000-0 -56333-1 0  9993,2 54007  53.2176 155.0457 0001487  65.9637 148.3261 15.20307084  9908,6883.051,94.718,505.939,503.892,0.0
54007.0,STARLINK-5132,PAYLOAD,2022-12-06 14:00:01,15.18711859,0.0001309,53.2168,152.0027,73.1292,189.9294,-0.061541,-0.01188469,0.0,0 STARLINK-5132,1 54007U 22125AV  22340.58335648 -.01188469  00000-0 -61541-1 0  9998,2 54007  53.2168 152.0027 0001309  73.1292 189.9294 15.18711859 10006,6887.87,94.817,510.636,508.833,0.0
54007.0,STARLINK-5132,PAYLOAD,2022-12-06 22:00:00,15.17923856,0.0001204,53.2169,150.4864,78.4556,207.4504,-0.0649179999999999,-0.01222308,0.0,0 STARLINK-5132,1 54007U 22125AV  22340.91667824 -.01222308  00000-0 -64918-1 0  9991,2 54007  53.2169 150.4864 0001204  78.4556 207.4504 15.17923856  1307,6890.253000000002,94.866,512.948,511.289,0.0
54007.0,STARLINK-5132,PAYLOAD,2022-12-07 14:00:01,15.16254005,0.0001348,53.2166,147.4536,58.1486,270.6955,-0.06454,-0.01163107,0.0,0 STARLINK-5132,1 54007U 22125AV  22341.58334491 -.01163107  00000-0 -64540-1 0  9998,2 54007  53.2166 147.4536 0001348  58.1486 270.6955 15.16254005 10159,6895.311,94.971,518.106,516.247,0.0
54007.0,STARLINK-5132,PAYLOAD,2022-12-07 22:00:00,15.15458273,0.0001298,53.2168,145.9427,63.18,285.6467,-0.067605,-0.01188681,0.0,0 STARLINK-5132,1 54007U 22125AV  22341.91667824 -.01188681  00000-0 -67605-1 0  9993,2 54007  53.2168 145.9427 0001298  63.1800 285.6467 15.15458273  1306,6897.725,95.021,520.485,518.694,0.0
54007.0,STARLINK-5132,PAYLOAD,2022-12-08 14:00:01,15.13837673,0.000134,53.2168,142.9214,60.4108,325.464,-0.071478,-0.01199259,0.0,0 STARLINK-5132,1 54007U 22125AV  22342.58334491 -.01199259  00000-0 -71478-1 0  9994,2 54007  53.2168 142.9214 0001340  60.4108 325.4640 15.13837673  1305,6902.647,95.122,525.436,523.587,0.0
54007.0,STARLINK-5132,PAYLOAD,2022-12-08 18:39:24,15.15532348,0.0001002999999999,53.2171,142.0583,306.1478,53.9424,-0.0175379999999999,-0.00322088,0.0,0 STARLINK-5132,1 54007U 22125AV  22342.77736532 -.00322088  00000-0 -17538-1 0  9991,2 54007  53.2171 142.0583 0001003 306.1478  53.9424 15.15532348 10334,6897.5,95.016,520.057,518.673,0.0
54007.0,STARLINK-5132,PAYLOAD,2022-12-09 06:00:02,15.12176333,0.0001411,53.2171,139.9089,53.0767,6.0171,-0.0718,-0.01153446,0.0,0 STARLINK-5132,1 54007U 22125AV  22343.25002315 -.01153446  00000-0 -71800-1 0  9993,2 54007  53.2171 139.9089 0001411  53.0767   6.0171 15.12176333 10414,6907.701,95.227,530.5409999999998,528.592,0.0
54007.0,STARLINK-5132,PAYLOAD,2022-12-09 14:00:01,15.11378915,0.0001447,53.2168,138.4064,62.4451,11.6792,-0.074934,-0.01175341,0.0,0 STARLINK-5132,1 54007U 22125AV  22343.58334491 -.01175341  00000-0 -74934-1 0  9991,2 54007  53.2168 138.4064 0001447  62.4451  11.6792 15.11378915  1308,6910.130999999999,95.277,532.996,530.996,0.0
54007.0,STARLINK-5132,PAYLOAD,2022-12-10 00:00:00,15.1034989,0.0001508,53.2168,136.5306,54.4094,127.2247,-0.076129,-0.01161539,0.0,0 STARLINK-5132,1 54007U 22125AV  22344.00001157 -.01161539  00000-0 -76129-1 0  9991,2 54007  53.2168 136.5306 0001508  54.4094 127.2247 15.10349890 10520,6913.269,95.342,536.177,534.092,0.0
54007.0,STARLINK-5132,PAYLOAD,2022-12-10 14:00:01,15.08913725,0.0001264,53.2174,133.9077,59.7602,53.8587,-0.0078334,-0.0012308,0.0,0 STARLINK-5132,1 54007U 22125AV  22344.58334491 -.00123080  00000-0 -78334-2 0  9993,2 54007  53.2174 133.9077 0001264  59.7602  53.8587 15.08913725 10617,6917.655,95.433,540.394,538.646,0.0
54007.0,STARLINK-5132,PAYLOAD,2022-12-10 22:00:00,15.0883544,0.0001471,53.2171,132.4121,61.6842,63.5633,0.00020443,2.967e-05,0.0,0 STARLINK-5132,1 54007U 22125AV  22344.91667824  .00002967  00000-0  20443-3 0  9996,2 54007  53.2171 132.4121 0001471  61.6842  63.5633 15.08835440 10668,6917.894,95.438,540.7769999999998,538.742,0.0
54007.0,STARLINK-5132,PAYLOAD,2022-12-11 00:00:00,15.08837495,0.0001478,53.2171,132.0375,59.4397,158.7056,-8.1318e-05,-1.582e-05,0.0,0 STARLINK-5132,1 54007U 22125AV  22345.00001157 -.00001582  00000-0 -81318-4 0  9991,2 54007  53.2171 132.0375 0001478  59.4397 158.7056 15.08837495  1301,6917.888000000001,95.438,540.776,538.731,0.0
54007.0,STARLINK-5132,PAYLOAD,2022-12-11 14:00:01,15.08861224,0.0001767,53.2162,129.4238,62.2383,86.2318,-0.0047606,-0.00075306,0.0,0 STARLINK-5132,1 54007U 22125AV  22345.58334491 -.00075306  00000-0 -47606-2 0  9999,2 54007  53.2162 129.4238 0001767  62.2383  86.2318 15.08861224  1300,6917.816,95.436,540.903,538.4580000000002,0.0
54007.0,STARLINK-5132,PAYLOAD,2022-12-11 22:00:01,15.08791553,0.0001786,53.2157,127.928,55.8054,104.3024,0.001955,0.00030922,0.0,0 STARLINK-5132,1 54007U 22125AV  22345.91668981  .00030922  00000-0  19550-2 0  9990,2 54007  53.2157 127.9280 0001786  55.8054 104.3024 15.08791553 10817,6918.028,95.441,541.129,538.658,0.0
54007.0,STARLINK-5132,PAYLOAD,2022-12-12 14:00:01,15.08860748,0.0001622,53.2165,124.9352,58.8957,124.2755,-0.0012247999999999,-0.00019739,0.0,0 STARLINK-5132,1 54007U 22125AV  22346.58334491 -.00019739  00000-0 -12248-2 0  9992,2 54007  53.2165 124.9352 0001622  58.8957 124.2755 15.08860748  1306,6917.816999999999,95.436,540.804,538.56,0.0
54007.0,STARLINK-5132,PAYLOAD,2022-12-12 22:00:00,15.08849333,0.0001604,53.2157,123.4399,51.7675,143.0166,-0.00073783,-0.00012014,0.0,0 STARLINK-5132,1 54007U 22125AV  22346.91667824 -.00012014  00000-0 -73783-3 0  9999,2 54007  53.2157 123.4399 0001604  51.7675 143.0166 15.08849333  1303,6917.852,95.437,540.826,538.607,0.0
54007.0,STARLINK-5132,PAYLOAD,2022-12-13 06:00:00,15.08836869,0.000173,53.2173,121.9355,56.1684,150.2256,-3.5143e-05,-8.47e-06,0.0,0 STARLINK-5132,1 54007U 22125AV  22347.25001157 -.00000847  00000-0 -35143-4 0  9998,2 54007  53.2173 121.9355 0001730  56.1684 150.2256 15.08836869 11014,6917.89,95.438,540.952,538.558,0.0
54007.0,STARLINK-5132,PAYLOAD,2022-12-13 14:00:01,15.08861749,0.0001511,53.2167,120.4439,60.4933,157.4779,-0.0024413,-0.00038955,0.0,0 STARLINK-5132,1 54007U 22125AV  22347.58334491 -.00038955  00000-0 -24413-2 0  9991,2 54007  53.2167 120.4439 0001511  60.4933 157.4779 15.08861749  1301,6917.814,95.436,540.724,538.634,0.0
54007.0,STARLINK-5132,PAYLOAD,2022-12-13 22:00:00,15.08834431,0.0001498,53.2156,118.95,48.4677,181.124,0.00055278,8.519e-05,0.0,0 STARLINK-5132,1 54007U 22125AV  22347.91667824  .00008519  00000-0  55278-3 0  9992,2 54007  53.2156 118.9500 0001498  48.4677 181.1240 15.08834431  1300,6917.897,95.438,540.799,538.726,0.0
54007.0,STARLINK-5132,PAYLOAD,2022-12-14 14:00:01,15.08828657,0.0001537,53.2153,115.9581,54.755,198.0324,-0.00063139,-0.00010319,0.0,0 STARLINK-5132,1 54007U 22125AV  22348.58334491 -.00010319  00000-0 -63139-3 0  9995,2 54007  53.2153 115.9581 0001537  54.7550 198.0324 15.08828657 11211,6917.915,95.438,540.8430000000002,538.717,0.0
